{"type": "FeatureCollection", "features": [ {"type": "Feature", "properties": {"norad_id": 35088, "name": "FENGYUN 1C DEB", "group": "fengyun-1c-debris", "lat": 35.984316905159375, "lon": -7.207928745164375, "alt_km": 664.3828434683392, "timestamp": "2025-12-26T11:25:45.480595+00:00", "meta": {"OBJECT_NAME": "FENGYUN 1C DEB", "OBJECT_ID": "1999-025DJQ", "EPOCH": "2025-12-20T06:48:25.112736", "MEAN_MOTION": 14.12178698, "ECCENTRICITY": 0.02665925, "INCLINATION": 94.6216, "RA_OF_ASC_NODE": 166.2192, "ARG_OF_PERICENTER": 179.9936, "MEAN_ANOMALY": 180.1297, "EPHEMERIS_TYPE": 0, "CLASSIFICATION_TYPE": "U", "NORAD_CAT_ID": 35088, "ELEMENT_SET_NO": 999, "REV_AT_EPOCH": 58906, "BSTAR": 0.004541836, "MEAN_MOTION_DOT": 0.00011675, "MEAN_MOTION_DDOT": 0}, "tle": {"line1": "1 35088U 99025DJQ 25354.28362399  .00011675  00000+0  45418-2 0  9993", "line2": "2 35088  94.6216 166.2192 0266592 179.9936 180.1297 14.12178698589068"}}, "geometry": {"type": "Point", "coordinates": [-7.207928745164375, 35.984316905159375]}}, {"type": "Feature", "properties": {"norad_id": 35089, "name": "FENGYUN 1C DEB", "group": "fengyun-1c-debris", "lat": 54.175346759868646, "lon": -2.189650173991738, "alt_km": 804.1436454502546, "timestamp": "2025-12-26T11:25:45.480604+00:00", "meta": {"OBJECT_NAME": "FENGYUN 1C DEB", "OBJECT_ID": "1999-025DJR", "EPOCH": "2025-12-23T07:02:36.109536", "MEAN_MOTION": 14.19444078, "ECCENTRICITY": 0.00286047, "INCLINATION": 98.5591, "RA_OF_ASC_NODE": 6.7767, "ARG_OF_PERICENTER": 34.5935, "MEAN_ANOMALY": 325.7095, "EPHEMERIS_TYPE": 0, "CLASSIFICATION_TYPE": "U", "NORAD_CAT_ID": 35089, "ELEMENT_SET_NO": 999, "REV_AT_EPOCH": 61025, "BSTAR": 0.00054341362, "MEAN_MOTION_DOT": 1.106e-05, "MEAN_MOTION_DDOT": 0}, "tle": {"line1": "1 35089U 99025DJR 25357.29347349  .00001106  00000+0  54341-3 0  9990", "line2": "2 35089  98.5591   6.7767 0028604  34.5935 325.7095 14.19444078610253"}}, "geometry": {"type": "Point", "coordinates": [-2.189650173991738, 54.175346759868646]}}, {"type": "Feature", "properties": {"norad_id": 35090, "name": "FENGYUN 1C DEB", "group": "fengyun-1c-debris", "lat": -70.6236545738958, "lon": 41.09112026890244, "alt_km": 814.3645727734338, "timestamp": "2025-12-26T11:25:45.480613+00:00", "meta": {"OBJECT_NAME": "FENGYUN 1C DEB", "OBJECT_ID": "1999-025DJS", "EPOCH": "2025-12-15T11:31:21.871200", "MEAN_MOTION": 14.17610468, "ECCENTRICITY": 0.00548506, "INCLINATION": 99.1994, "RA_OF_ASC_NODE": 2.2725, "ARG_OF_PERICENTER": 7.0781, "MEAN_ANOMALY": 353.1155, "EPHEMERIS_TYPE": 0, "CLASSIFICATION_TYPE": "U", "NORAD_CAT_ID": 35090, "ELEMENT_SET_NO": 999, "REV_AT_EPOCH": 66289, "BSTAR": 0.0011364277, "MEAN_MOTION_DOT": 2.298e-05, "MEAN_MOTION_DDOT": 0}, "tle": {"line1": "1 35090U 99025DJS 25349.48011425  .00002298  00000+0  11364-2 0  9997", "line2": "2 35090  99.1994   2.2725 0054850   7.0781 353.1155 14.17610468662895"}}, "geometry": {"type": "Point", "coordinates": [41.09112026890244, -70.6236545738958]}}, {"type": "Feature", "properties": {"norad_id": 35091, "name": "FENGYUN 1C DEB", "group": "fengyun-1c-debris", "lat": -77.99062871724064, "lon": 150.65047034580704, "alt_km": 663.350251874881, "timestamp": "2025-12-26T11:25:45.480622+00:00", "meta": {"OBJECT_NAME": "FENGYUN 1C DEB", "OBJECT_ID": "1999-025DJT", "EPOCH": "2025-12-25T06:13:57.794880", "MEAN_MOTION": 14.61875756, "ECCENTRICITY": 0.0049836, "INCLINATION": 98.5978, "RA_OF_ASC_NODE": 104.0512, "ARG_OF_PERICENTER": 253.6551, "MEAN_ANOMALY": 105.9166, "EPHEMERIS_TYPE": 0, "CLASSIFICATION_TYPE": "U", "NORAD_CAT_ID": 35091, "ELEMENT_SET_NO": 999, "REV_AT_EPOCH": 90110, "BSTAR": 0.0030716, "MEAN_MOTION_DOT": 0.00015611, "MEAN_MOTION_DDOT": 0}, "tle": {"line1": "1 35091U 99025DJT 25359.25969670  .00015611  00000+0  30716-2 0  9993", "line2": "2 35091  98.5978 104.0512 0049836 253.6551 105.9166 14.61875756901105"}}, "geometry": {"type": "Point", "coordinates": [150.65047034580704, -77.99062871724064]}}, {"type": "Feature", "properties": {"norad_id": 35102, "name": "FENGYUN 1C DEB", "group": "fengyun-1c-debris", "lat": -68.25601305313383, "lon": 168.40562104658792, "alt_km": 843.8792577859967, "timestamp": "2025-12-26T11:25:45.480631+00:00", "meta": {"OBJECT_NAME": "FENGYUN 1C DEB", "OBJECT_ID": "1999-025DKE", "EPOCH": "2025-12-13T06:19:02.409312", "MEAN_MOTION": 14.28874039, "ECCENTRICITY": 0.00607637, "INCLINATION": 98.4802, "RA_OF_ASC_NODE": 357.5239, "ARG_OF_PERICENTER": 90.2418, "MEAN_ANOMALY": 270.5727, "EPHEMERIS_TYPE": 0, "CLASSIFICATION_TYPE": "U", "NORAD_CAT_ID": 35102, "ELEMENT_SET_NO": 999, "REV_AT_EPOCH": 64920, "BSTAR": 0.00073405609, "MEAN_MOTION_DOT": 1.848e-05, "MEAN_MOTION_DDOT": 0}, "tle": {"line1": "1 35102U 99025DKE 25347.26322233  .00001848  00000+0  73406-3 0  9993", "line2": "2 35102  98.4802 357.5239 0060763  90.2418 270.5727 14.28874039649201"}}, "geometry": {"type": "Point", "coordinates": [168.40562104658792, -68.25601305313383]}}, {"type": "Feature", "properties": {"norad_id": 35104, "name": "FENGYUN 1C DEB", "group": "fengyun-1c-debris", "lat": -8.94878856461286, "lon": 8.156547611399143, "alt_km": 836.1255447006424, "timestamp": "2025-12-26T11:25:45.480640+00:00", "meta": {"OBJECT_NAME": "FENGYUN 1C DEB", "OBJECT_ID": "1999-025DKG", "EPOCH": "2025-12-20T06:46:17.192352", "MEAN_MOTION": 14.20340868, "ECCENTRICITY": 0.00314522, "INCLINATION": 98.5954, "RA_OF_ASC_NODE": 0.7725, "ARG_OF_PERICENTER": 119.6618, "MEAN_ANOMALY": 257.8395, "EPHEMERIS_TYPE": 0, "CLASSIFICATION_TYPE": "U", "NORAD_CAT_ID": 35104, "ELEMENT_SET_NO": 999, "REV_AT_EPOCH": 89874, "BSTAR": 0.00030233796, "MEAN_MOTION_DOT": 6.08e-06, "MEAN_MOTION_DDOT": 0}, "tle": {"line1": "1 35104U 99025DKG 25354.28214343  .00000608  00000+0  30234-3 0  9992", "line2": "2 35104  98.5954   0.7725 0031452 119.6618 257.8395 14.20340868898744"}}, "geometry": {"type": "Point", "coordinates": [8.156547611399143, -8.94878856461286]}}, {"type": "Feature", "properties": {"norad_id": 35105, "name": "FENGYUN 1C DEB", "group": "fengyun-1c-debris", "lat": -7.383670591535499, "lon": 161.08863476413472, "alt_km": 823.9732424863796, "timestamp": "2025-12-26T11:25:45.480649+00:00", "meta": {"OBJECT_NAME": "FENGYUN 1C DEB", "OBJECT_ID": "1999-025DKH", "EPOCH": "2025-12-24T05:24:14.039136", "MEAN_MOTION": 14.45410929, "ECCENTRICITY": 0.01123178, "INCLINATION": 98.9452, "RA_OF_ASC_NODE": 339.887, "ARG_OF_PERICENTER": 20.4148, "MEAN_ANOMALY": 340.1478, "EPHEMERIS_TYPE": 0, "CLASSIFICATION_TYPE": "U", "NORAD_CAT_ID": 35105, "ELEMENT_SET_NO": 999, "REV_AT_EPOCH": 94659, "BSTAR": 0.00038829935, "MEAN_MOTION_DOT": 1.423e-05, "MEAN_MOTION_DDOT": 0}, "tle": {"line1": "1 35105U 99025DKH 25358.22516249  .00001423  00000+0  38830-3 0  9997", "line2": "2 35105  98.9452 339.8870 0112317  20.4148 340.1478 14.45410929946594"}}, "geometry": {"type": "Point", "coordinates": [161.08863476413472, -7.383670591535499]}}, {"type": "Feature", "properties": {"norad_id": 35108, "name": "FENGYUN 1C DEB", "group": "fengyun-1c-debris", "lat": 56.38843408460004, "lon": -17.73515478842928, "alt_km": 783.2668164330589, "timestamp": "2025-12-26T11:25:45.480658+00:00", "meta": {"OBJECT_NAME": "FENGYUN 1C DEB", "OBJECT_ID": "1999-025DKL", "EPOCH": "2025-12-14T17:32:43.265184", "MEAN_MOTION": 14.06913766, "ECCENTRICITY": 0.01353379, "INCLINATION": 98.801, "RA_OF_ASC_NODE": 344.3103, "ARG_OF_PERICENTER": 55.9263, "MEAN_ANOMALY": 305.4667, "EPHEMERIS_TYPE": 0, "CLASSIFICATION_TYPE": "U", "NORAD_CAT_ID": 35108, "ELEMENT_SET_NO": 999, "REV_AT_EPOCH": 89266, "BSTAR": 0.00032621951, "MEAN_MOTION_DOT": 5.49e-06, "MEAN_MOTION_DDOT": 0}, "tle": {"line1": "1 35108U 99025DKL 25348.73105631  .00000549  00000+0  32622-3 0  9995", "line2": "2 35108  98.8010 344.3103 0135337  55.9263 305.4667 14.06913766892660"}}, "geometry": {"type": "Point", "coordinates": [-17.73515478842928, 56.38843408460004]}}, {"type": "Feature", "properties": {"norad_id": 35109, "name": "FENGYUN 1C DEB", "group": "fengyun-1c-debris", "lat": -2.944527283105961, "lon": 168.97264975551207, "alt_km": 934.4994302474997, "timestamp": "2025-12-26T11:25:45.480668+00:00", "meta": {"OBJECT_NAME": "FENGYUN 1C DEB", "OBJECT_ID": "1999-025DKM", "EPOCH": "2025-12-24T16:19:09.812352", "MEAN_MOTION": 14.20893527, "ECCENTRICITY": 0.01527734, "INCLINATION": 98.6161, "RA_OF_ASC_NODE": 347.6674, "ARG_OF_PERICENTER": 359.9171, "MEAN_ANOMALY": 0.1956, "EPHEMERIS_TYPE": 0, "CLASSIFICATION_TYPE": "U", "NORAD_CAT_ID": 35109, "ELEMENT_SET_NO": 999, "REV_AT_EPOCH": 64329, "BSTAR": 0.00031423303, "MEAN_MOTION_DOT": 7.21e-06, "MEAN_MOTION_DDOT": 0}, "tle": {"line1": "1 35109U 99025DKM 25358.67997468  .00000721  00000+0  31423-3 0  9997", "line2": "2 35109  98.6161 347.6674 0152773 359.9171   0.1956 14.20893527643294"}}, "geometry": {"type": "Point", "coordinates": [168.97264975551207, -2.944527283105961]}}, {"type": "Feature", "properties": {"norad_id": 35111, "name": "FENGYUN 1C DEB", "group": "fengyun-1c-debris", "lat": -80.25534024634828, "lon": -176.4194940333544, "alt_km": 862.1079620990067, "timestamp": "2025-12-26T11:25:45.480677+00:00", "meta": {"OBJECT_NAME": "FENGYUN 1C DEB", "OBJECT_ID": "1999-025DKP", "EPOCH": "2025-12-16T11:54:10.013472", "MEAN_MOTION": 14.10973478, "ECCENTRICITY": 0.0021869, "INCLINATION": 99.4657, "RA_OF_ASC_NODE": 69.3478, "ARG_OF_PERICENTER": 209.5025, "MEAN_ANOMALY": 150.4911, "EPHEMERIS_TYPE": 0, "CLASSIFICATION_TYPE": "U", "NORAD_CAT_ID": 35111, "ELEMENT_SET_NO": 999, "REV_AT_EPOCH": 64197, "BSTAR": 0.00043746639, "MEAN_MOTION_DOT": 7.38e-06, "MEAN_MOTION_DDOT": 0}, "tle": {"line1": "1 35111U 99025DKP 25350.49594923  .00000738  00000+0  43747-3 0  9991", "line2": "2 35111  99.4657  69.3478 0021869 209.5025 150.4911 14.10973478641971"}}, "geometry": {"type": "Point", "coordinates": [-176.4194940333544, -80.25534024634828]}}]}